{"type": "FeatureCollection", "features": [ {"type": "Feature", "properties": {"norad_id": 34464, "name": "COSMOS 2251 DEB", "group": "cosmos-2251-debris", "lat": 32.48960527018104, "lon": 95.72848840374205, "alt_km": 492.57766556312527, "timestamp": "2025-12-09T11:33:55.195574+00:00", "meta": {"OBJECT_NAME": "COSMOS 2251 DEB", "OBJECT_ID": "1993-036TH", "EPOCH": "2025-12-08T16:32:18.525120", "MEAN_MOTION": 15.26153542, "ECCENTRICITY": 0.00168453, "INCLINATION": 73.9909, "RA_OF_ASC_NODE": 86.8747, "ARG_OF_PERICENTER": 262.6462, "MEAN_ANOMALY": 97.2824, "EPHEMERIS_TYPE": 0, "CLASSIFICATION_TYPE": "U", "NORAD_CAT_ID": 34464, "ELEMENT_SET_NO": 999, "REV_AT_EPOCH": 89778, "BSTAR": 0.0035610491, "MEAN_MOTION_DOT": 0.0009352, "MEAN_MOTION_DDOT": 0}, "tle": {"line1": "1 34464U 93036TH  25342.68910330  .00093520  00000+0  35610-2 0  9993", "line2": "2 34464  73.9909  86.8747 0016845 262.6462  97.2824 15.26153542897787"}}, "geometry": {"type": "Point", "coordinates": [95.72848840374205, 32.48960527018104]}}, {"type": "Feature", "properties": {"norad_id": 34468, "name": "COSMOS 2251 DEB", "group": "cosmos-2251-debris", "lat": 68.6316748069652, "lon": -103.80820667593477, "alt_km": 778.7502060193674, "timestamp": "2025-12-09T11:33:55.195584+00:00", "meta": {"OBJECT_NAME": "COSMOS 2251 DEB", "OBJECT_ID": "1993-036TM", "EPOCH": "2025-12-09T02:47:13.896384", "MEAN_MOTION": 14.47608802, "ECCENTRICITY": 0.0076344, "INCLINATION": 74.013, "RA_OF_ASC_NODE": 123.9926, "ARG_OF_PERICENTER": 269.6554, "MEAN_ANOMALY": 89.5857, "EPHEMERIS_TYPE": 0, "CLASSIFICATION_TYPE": "U", "NORAD_CAT_ID": 34468, "ELEMENT_SET_NO": 999, "REV_AT_EPOCH": 88409, "BSTAR": 0.00048051, "MEAN_MOTION_DOT": 1.806e-05, "MEAN_MOTION_DDOT": 0}, "tle": {"line1": "1 34468U 93036TM  25343.11613306  .00001806  00000+0  48051-3 0  9999", "line2": "2 34468  74.0130 123.9926 0076344 269.6554  89.5857 14.47608802884096"}}, "geometry": {"type": "Point", "coordinates": [-103.80820667593477, 68.6316748069652]}}, {"type": "Feature", "properties": {"norad_id": 34472, "name": "COSMOS 2251 DEB", "group": "cosmos-2251-debris", "lat": -40.191303983830025, "lon": 89.55289640703991, "alt_km": 966.051228526323, "timestamp": "2025-12-09T11:33:55.195593+00:00", "meta": {"OBJECT_NAME": "COSMOS 2251 DEB", "OBJECT_ID": "1993-036TR", "EPOCH": "2025-12-08T18:15:08.826912", "MEAN_MOTION": 13.70322213, "ECCENTRICITY": 0.03280903, "INCLINATION": 74.0833, "RA_OF_ASC_NODE": 104.6881, "ARG_OF_PERICENTER": 236.5736, "MEAN_ANOMALY": 120.3611, "EPHEMERIS_TYPE": 0, "CLASSIFICATION_TYPE": "U", "NORAD_CAT_ID": 34472, "ELEMENT_SET_NO": 999, "REV_AT_EPOCH": 83672, "BSTAR": 0.0014639166, "MEAN_MOTION_DOT": 1.867e-05, "MEAN_MOTION_DDOT": 0}, "tle": {"line1": "1 34472U 93036TR  25342.76051883  .00001867  00000+0  14639-2 0  9991", "line2": "2 34472  74.0833 104.6881 0328090 236.5736 120.3611 13.70322213836723"}}, "geometry": {"type": "Point", "coordinates": [89.55289640703991, -40.191303983830025]}}, {"type": "Feature", "properties": {"norad_id": 34474, "name": "COSMOS 2251 DEB", "group": "cosmos-2251-debris", "lat": 23.6184971966068, "lon": -20.96399630281447, "alt_km": 737.1971510503736, "timestamp": "2025-12-09T11:33:55.195604+00:00", "meta": {"OBJECT_NAME": "COSMOS 2251 DEB", "OBJECT_ID": "1993-036TT", "EPOCH": "2025-12-09T01:30:22.209120", "MEAN_MOTION": 14.06373238, "ECCENTRICITY": 0.0198088, "INCLINATION": 74.0784, "RA_OF_ASC_NODE": 332.5971, "ARG_OF_PERICENTER": 47.4143, "MEAN_ANOMALY": 16.9324, "EPHEMERIS_TYPE": 0, "CLASSIFICATION_TYPE": "U", "NORAD_CAT_ID": 34474, "ELEMENT_SET_NO": 999, "REV_AT_EPOCH": 85457, "BSTAR": 0.0020318, "MEAN_MOTION_DOT": 3.984e-05, "MEAN_MOTION_DDOT": 0}, "tle": {"line1": "1 34474U 93036TT  25343.06275705  .00003984  00000+0  20318-2 0  9991", "line2": "2 34474  74.0784 332.5971 0198088  47.4143  16.9324 14.06373238854572"}}, "geometry": {"type": "Point", "coordinates": [-20.96399630281447, 23.6184971966068]}}, {"type": "Feature", "properties": {"norad_id": 34476, "name": "COSMOS 2251 DEB", "group": "cosmos-2251-debris", "lat": -70.44346037995699, "lon": 34.15354298801139, "alt_km": 753.134429794316, "timestamp": "2025-12-09T11:33:55.195614+00:00", "meta": {"OBJECT_NAME": "COSMOS 2251 DEB", "OBJECT_ID": "1993-036TV", "EPOCH": "2025-12-08T13:20:20.020128", "MEAN_MOTION": 13.81965713, "ECCENTRICITY": 0.0319682, "INCLINATION": 74.0059, "RA_OF_ASC_NODE": 89.5558, "ARG_OF_PERICENTER": 310.04, "MEAN_ANOMALY": 47.307, "EPHEMERIS_TYPE": 0, "CLASSIFICATION_TYPE": "U", "NORAD_CAT_ID": 34476, "ELEMENT_SET_NO": 999, "REV_AT_EPOCH": 83580, "BSTAR": 0.0045854, "MEAN_MOTION_DOT": 7.252e-05, "MEAN_MOTION_DDOT": 0}, "tle": {"line1": "1 34476U 93036TV  25342.55578727  .00007252  00000+0  45854-2 0  9990", "line2": "2 34476  74.0059  89.5558 0319682 310.0400  47.3070 13.81965713835807"}}, "geometry": {"type": "Point", "coordinates": [34.15354298801139, -70.44346037995699]}}, {"type": "Feature", "properties": {"norad_id": 34477, "name": "COSMOS 2251 DEB", "group": "cosmos-2251-debris", "lat": 20.217078180753102, "lon": 81.78372468860229, "alt_km": 728.1543749721905, "timestamp": "2025-12-09T11:33:55.195624+00:00", "meta": {"OBJECT_NAME": "COSMOS 2251 DEB", "OBJECT_ID": "1993-036TW", "EPOCH": "2025-12-09T01:52:58.567296", "MEAN_MOTION": 14.56818697, "ECCENTRICITY": 0.0076918, "INCLINATION": 73.9791, "RA_OF_ASC_NODE": 76.478, "ARG_OF_PERICENTER": 264.3026, "MEAN_ANOMALY": 161.1292, "EPHEMERIS_TYPE": 0, "CLASSIFICATION_TYPE": "U", "NORAD_CAT_ID": 34477, "ELEMENT_SET_NO": 999, "REV_AT_EPOCH": 88572, "BSTAR": 0.0011041, "MEAN_MOTION_DOT": 5.12e-05, "MEAN_MOTION_DDOT": 0}, "tle": {"line1": "1 34477U 93036TW  25343.07845564  .00005120  00000+0  11041-2 0  9998", "line2": "2 34477  73.9791  76.4780 0076918 264.3026 161.1292 14.56818697885726"}}, "geometry": {"type": "Point", "coordinates": [81.78372468860229, 20.217078180753102]}}, {"type": "Feature", "properties": {"norad_id": 34478, "name": "COSMOS 2251 DEB", "group": "cosmos-2251-debris", "lat": 20.76532168178297, "lon": 19.81540372483481, "alt_km": 563.6489786205684, "timestamp": "2025-12-09T11:33:55.195634+00:00", "meta": {"OBJECT_NAME": "COSMOS 2251 DEB", "OBJECT_ID": "1993-036TX", "EPOCH": "2025-12-09T03:45:23.493888", "MEAN_MOTION": 15.07546679, "ECCENTRICITY": 0.0035434, "INCLINATION": 74.0399, "RA_OF_ASC_NODE": 14.2543, "ARG_OF_PERICENTER": 236.044, "MEAN_ANOMALY": 180.3943, "EPHEMERIS_TYPE": 0, "CLASSIFICATION_TYPE": "U", "NORAD_CAT_ID": 34478, "ELEMENT_SET_NO": 999, "REV_AT_EPOCH": 88919, "BSTAR": 0.0034605, "MEAN_MOTION_DOT": 0.00053718, "MEAN_MOTION_DDOT": 0}, "tle": {"line1": "1 34478U 93036TX  25343.15652192  .00053718  00000+0  34605-2 0  9998", "line2": "2 34478  74.0399  14.2543 0035434 236.0440 180.3943 15.07546679889190"}}, "geometry": {"type": "Point", "coordinates": [19.81540372483481, 20.76532168178297]}}, {"type": "Feature", "properties": {"norad_id": 34481, "name": "COSMOS 2251 DEB", "group": "cosmos-2251-debris", "lat": 40.41219867086039, "lon": -134.73262613175726, "alt_km": 785.4260229966249, "timestamp": "2025-12-09T11:33:55.195644+00:00", "meta": {"OBJECT_NAME": "COSMOS 2251 DEB", "OBJECT_ID": "1993-036UA", "EPOCH": "2025-12-08T06:41:40.210368", "MEAN_MOTION": 14.32524221, "ECCENTRICITY": 0.0070857, "INCLINATION": 73.9806, "RA_OF_ASC_NODE": 61.6291, "ARG_OF_PERICENTER": 236.8127, "MEAN_ANOMALY": 180.2341, "EPHEMERIS_TYPE": 0, "CLASSIFICATION_TYPE": "U", "NORAD_CAT_ID": 34481, "ELEMENT_SET_NO": 999, "REV_AT_EPOCH": 87385, "BSTAR": 0.001196436, "MEAN_MOTION_DOT": 3.31e-05, "MEAN_MOTION_DDOT": 0}, "tle": {"line1": "1 34481U 93036UA  25342.27893762  .00003310  00000+0  11964-2 0  9990", "line2": "2 34481  73.9806  61.6291 0070857 236.8127 180.2341 14.32524221873852"}}, "geometry": {"type": "Point", "coordinates": [-134.73262613175726, 40.41219867086039]}}, {"type": "Feature", "properties": {"norad_id": 34482, "name": "COSMOS 2251 DEB", "group": "cosmos-2251-debris", "lat": -56.093377901985264, "lon": 75.10549452500877, "alt_km": 650.5196163159717, "timestamp": "2025-12-09T11:33:55.195654+00:00", "meta": {"OBJECT_NAME": "COSMOS 2251 DEB", "OBJECT_ID": "1993-036UB", "EPOCH": "2025-12-09T02:59:15.250848", "MEAN_MOTION": 14.6905885, "ECCENTRICITY": 0.0045306, "INCLINATION": 74.0366, "RA_OF_ASC_NODE": 230.5913, "ARG_OF_PERICENTER": 291.2458, "MEAN_ANOMALY": 219.3701, "EPHEMERIS_TYPE": 0, "CLASSIFICATION_TYPE": "U", "NORAD_CAT_ID": 34482, "ELEMENT_SET_NO": 999, "REV_AT_EPOCH": 88134, "BSTAR": 0.0022792, "MEAN_MOTION_DOT": 0.00013586, "MEAN_MOTION_DDOT": 0}, "tle": {"line1": "1 34482U 93036UB  25343.12448207  .00013586  00000+0  22792-2 0  9993", "line2": "2 34482  74.0366 230.5913 0045306 291.2458 219.3701 14.69058850881344"}}, "geometry": {"type": "Point", "coordinates": [75.10549452500877, -56.093377901985264]}}, {"type": "Feature", "properties": {"norad_id": 34544, "name": "COSMOS 2251 DEB", "group": "cosmos-2251-debris", "lat": 27.734822700173655, "lon": -141.9699640607202, "alt_km": 1300.0877633990767, "timestamp": "2025-12-09T11:33:55.195664+00:00", "meta": {"OBJECT_NAME": "COSMOS 2251 DEB", "OBJECT_ID": "1993-036UE", "EPOCH": "2025-12-08T02:32:15.563616", "MEAN_MOTION": 13.54658928, "ECCENTRICITY": 0.03844146, "INCLINATION": 73.9149, "RA_OF_ASC_NODE": 211.5315, "ARG_OF_PERICENTER": 240.8263, "MEAN_ANOMALY": 277.3195, "EPHEMERIS_TYPE": 0, "CLASSIFICATION_TYPE": "U", "NORAD_CAT_ID": 34544, "ELEMENT_SET_NO": 999, "REV_AT_EPOCH": 82819, "BSTAR": 0.00035904708, "MEAN_MOTION_DOT": 3.7e-06, "MEAN_MOTION_DDOT": 0}, "tle": {"line1": "1 34544U 93036UE  25342.10573569  .00000370  00000+0  35905-3 0  9997", "line2": "2 34544  73.9149 211.5315 0384414 240.8263 277.3195 13.54658928828195"}}, "geometry": {"type": "Point", "coordinates": [-141.9699640607202, 27.734822700173655]}}]}